[{"OBJECT_NAME":"YAOGAN-30 02C","OBJECT_ID":"2017-058C","EPOCH":"2026-03-09T23:23:41.320320","MEAN_MOTION":15.0385567,"ECCENTRICITY":0.00042194,"INCLINATION":34.9965,"RA_OF_ASC_NODE":266.8068,"ARG_OF_PERICENTER":49.9722,"MEAN_ANOMALY":310.1357,"EPHEMERIS_TYPE":0,"CLASSIFICATION_TYPE":"U","NORAD_CAT_ID":42947,"ELEMENT_SET_NO":999,"REV_AT_EPOCH":46087,"BSTAR":0.00031396475,"MEAN_MOTION_DOT":4.384e-5,"MEAN_MOTION_DDOT":0},{"OBJECT_NAME":"STARLINK-34714","OBJECT_ID":"2025-158H","EPOCH":"2026-03-09T15:26:25.636128","MEAN_MOTION":15.05667828,"ECCENTRICITY":0.0001395,"INCLINATION":97.6029,"RA_OF_ASC_NODE":294.1154,"ARG_OF_PERICENTER":61.921,"MEAN_ANOMALY":298.2158,"EPHEMERIS_TYPE":0,"CLASSIFICATION_TYPE":"U","NORAD_CAT_ID":64939,"ELEMENT_SET_NO":999,"REV_AT_EPOCH":3519,"BSTAR":0.00048537,"MEAN_MOTION_DOT":6.953e-5,"MEAN_MOTION_DDOT":0}]
